NORAD_CAT_ID,OBJECT_NAME,OBJECT_TYPE,EPOCH,MEAN_MOTION,ECCENTRICITY,INCLINATION,RA_OF_ASC_NODE,ARG_OF_PERICENTER,MEAN_ANOMALY,BSTAR,MEAN_MOTION_DOT,MEAN_MOTION_DDOT,TLE_LINE0,TLE_LINE1,TLE_LINE2,SEMIMAJOR_AXIS,PERIOD,APOGEE,PERIGEE,DECAYED
53598.0,STARLINK-4676,PAYLOAD,2023-02-27 18:52:34,15.08890581,0.0001335,53.214,168.5309,99.7083,260.406,0.0019788,0.00031389,0.0,0 STARLINK-4676,1 53598U 22104L   23058.78651105  .00031389  00000-0  19788-2 0  9999,2 53598  53.2140 168.5309 0001335  99.7083 260.4060 15.08890581 28662,6917.726,95.434,540.514,538.667,0.0
53598.0,STARLINK-4676,PAYLOAD,2023-02-28 12:21:50,15.08829908,0.0001438,53.2146,165.2606,81.023,279.0924,0.0012254,0.00019263,0.0,0 STARLINK-4676,1 53598U 22104L   23059.51516974  .00019263  00000-0  12254-2 0  9993,2 53598  53.2146 165.2606 0001438  81.0230 279.0924 15.08829908 28776,6917.911,95.438,540.771,538.781,0.0
53598.0,STARLINK-4676,PAYLOAD,2023-02-28 13:57:13,15.08828354,0.0001475,53.2146,164.9633,81.8241,278.2918,0.0013402,0.00021099,0.0,0 STARLINK-4676,1 53598U 22104L   23059.58141089  .00021099  00000-0  13402-2 0  9997,2 53598  53.2146 164.9633 0001475  81.8241 278.2918 15.08828354 28096,6917.916,95.438,540.801,538.761,0.0
53598.0,STARLINK-4676,PAYLOAD,2023-02-28 18:43:23,15.08840004,0.0001366,53.214,164.0713,62.1004,298.0126,0.0019053,0.00030165,0.0,0 STARLINK-4676,1 53598U 22104L   23059.78013225  .00030165  00000-0  19053-2 0  9991,2 53598  53.2140 164.0713 0001366  62.1004 298.0126 15.08840004 28815,6917.88,95.438,540.69,538.8,0.0
53598.0,STARLINK-4676,PAYLOAD,2023-02-28 23:29:33,15.08815466,7.5e-05,53.2142,163.1791,33.6915,326.4125,0.00030126,4.507e-05,0.0,0 STARLINK-4676,1 53598U 22104L   23059.97885634  .00004507  00000-0  30126-3 0  9999,2 53598  53.2142 163.1791 0000750  33.6915 326.4125 15.08815466 28159,6917.955,95.439,540.339,539.302,0.0
53598.0,STARLINK-4676,PAYLOAD,2023-03-01 16:58:49,15.08831292,0.0001193,53.2139,159.9085,50.5528,309.5569,0.0020597,0.00032636,0.0,0 STARLINK-4676,1 53598U 22104L   23060.70751302  .00032636  00000-0  20597-2 0  9990,2 53598  53.2139 159.9085 0001193  50.5528 309.5569 15.08831292 28951,6917.907,95.438,540.597,538.947,0.0
53598.0,STARLINK-4676,PAYLOAD,2023-03-01 23:20:21,15.08842269,0.0001235,53.2141,158.7191,52.1248,307.9855,0.0016478,0.00026036,0.0,0 STARLINK-4676,1 53598U 22104L   23060.97247332  .00026036  00000-0  16478-2 0  9992,2 53598  53.2141 158.7191 0001235  52.1248 307.9855 15.08842269 28308,6917.873,95.437,540.593,538.884,0.0
53598.0,STARLINK-4676,PAYLOAD,2023-03-02 18:24:57,15.08901708,0.0001266,53.2139,155.1505,50.1713,309.9391,0.0021775,0.00034596,0.0,0 STARLINK-4676,1 53598U 22104L   23061.76733417  .00034596  00000-0  21775-2 0  9990,2 53598  53.2139 155.1505 0001266  50.1713 309.9391 15.08901708 28428,6917.692,95.434,540.433,538.681,0.0
53598.0,STARLINK-4676,PAYLOAD,2023-03-03 10:18:48,15.08881029,0.0001222,53.214,152.1766,49.6146,310.4952,0.0019407,0.00030768,0.0,0 STARLINK-4676,1 53598U 22104L   23062.42972778  .00030768  00000-0  19407-2 0  9995,2 53598  53.2140 152.1766 0001222  49.6146 310.4952 15.08881029 28525,6917.755,95.435,540.465,538.775,0.0
53598.0,STARLINK-4676,PAYLOAD,2023-03-03 18:15:43,15.08915503,0.0001169,53.2139,150.6892,58.9492,301.1615,0.0032308,0.00051614,0.0,0 STARLINK-4676,1 53598U 22104L   23062.76091532  .00051614  00000-0  32308-2 0  9990,2 53598  53.2139 150.6892 0001169  58.9492 301.1615 15.08915503 28576,6917.65,95.433,540.323,538.706,0.0
53598.0,STARLINK-4676,PAYLOAD,2023-03-04 11:44:58,15.08856706,0.0001444,53.2141,147.4183,70.7819,289.3329,0.0023509,0.00037342,0.0,0 STARLINK-4676,1 53598U 22104L   23063.48956577  .00037342  00000-0  23509-2 0  9994,2 53598  53.2141 147.4183 0001444  70.7819 289.3329 15.08856706 28687,6917.829,95.436,540.693,538.695,0.0
53598.0,STARLINK-4676,PAYLOAD,2023-03-04 18:06:30,15.08880962,0.0001306,53.2143,146.2275,84.9462,275.1679,0.0035521,0.00056763,0.0,0 STARLINK-4676,1 53598U 22104L   23063.75452168  .00056763  00000-0  35521-2 0  9996,2 53598  53.2143 146.2275 0001306  84.9462 275.1679 15.08880962 29410,6917.755,95.435,540.524,538.717,0.0
53598.0,STARLINK-4676,PAYLOAD,2023-03-05 05:14:13,15.08825927,0.0001444,53.2151,144.1473,106.1121,254.003,0.0035311,0.00056337,0.0,0 STARLINK-4676,1 53598U 22104L   23064.21821500  .00056337  00000-0  35311-2 0  9992,2 53598  53.2151 144.1473 0001444 106.1121 254.0030 15.08825927 28795,6917.923,95.438,540.787,538.789,0.0
53598.0,STARLINK-4676,PAYLOAD,2023-03-05 22:43:28,15.08864656,0.0001095,53.215,140.8757,119.4024,240.7078,0.00264,0.00042007,0.0,0 STARLINK-4676,1 53598U 22104L   23064.94685421  .00042007  00000-0  26400-2 0  9990,2 53598  53.2150 140.8757 0001095 119.4024 240.7078 15.08864656 28902,6917.805,95.436,540.428,538.913,0.0
53598.0,STARLINK-4676,PAYLOAD,2023-03-06 11:26:33,15.08863697,0.0001792,53.2152,138.496,109.4762,250.6424,0.0011514,0.00018096,0.0,0 STARLINK-4676,1 53598U 22104L   23065.47677141  .00018096  00000-0  11514-2 0  9990,2 53598  53.2152 138.4960 0001792 109.4762 250.6424 15.08863697 28982,6917.808,95.436,540.913,538.433,0.0
53598.0,STARLINK-4676,PAYLOAD,2023-03-06 14:37:19,15.08875754,0.0001626,53.2166,137.9037,100.7282,259.3893,0.0016391,0.0002592,0.0,0 STARLINK-4676,1 53598U 22104L   23065.60924771  .00025920  00000-0  16391-2 0  9991,2 53598  53.2166 137.9037 0001626 100.7282 259.3893 15.08875754 29695,6917.771,95.435,540.761,538.511,0.0
53598.0,STARLINK-4676,PAYLOAD,2023-03-07 09:41:57,15.08841766,0.0001513,53.2153,134.3328,102.3428,257.7733,0.00044473,6.797e-05,0.0,0 STARLINK-4676,1 53598U 22104L   23066.40413617  .00006797  00000-0  44473-3 0  9996,2 53598  53.2153 134.3328 0001513 102.3428 257.7733 15.08841766 29129,6917.875,95.437,540.787,538.693,0.0
53598.0,STARLINK-4676,PAYLOAD,2023-03-07 16:03:29,15.08865669,0.0001361,53.2149,133.1443,112.7751,247.3385,0.002305,0.00036613,0.0,0 STARLINK-4676,1 53598U 22104L   23066.66909350  .00036613  00000-0  23050-2 0  9995,2 53598  53.2149 133.1443 0001361 112.7751 247.3385 15.08865669 29164,6917.802,95.436,540.608,538.725,0.0
53598.0,STARLINK-4676,PAYLOAD,2023-03-07 20:49:39,15.08815958,0.0001506,53.2154,132.2537,86.8317,273.2847,0.0024834,0.00039431,0.0,0 STARLINK-4676,1 53598U 22104L   23066.86781975  .00039431  00000-0  24834-2 0  9990,2 53598  53.2154 132.2537 0001506  86.8317 273.2847 15.08815958 29880,6917.954,95.439,540.861,538.777,0.0
53598.0,STARLINK-4676,PAYLOAD,2023-03-08 09:32:44,15.08843617,0.0001155,53.2146,129.8764,93.0099,267.1025,0.0013009,0.00020478,0.0,0 STARLINK-4676,1 53598U 22104L   23067.39774126  .00020478  00000-0  13009-2 0  9992,2 53598  53.2146 129.8764 0001155  93.0099 267.1025 15.08843617 29278,6917.869,95.437,540.533,538.935,0.0
53598.0,STARLINK-4676,PAYLOAD,2023-03-08 20:40:26,15.08853074,0.0001149,53.2135,127.7934,89.4758,270.6366,0.0016596,0.00026233,0.0,0 STARLINK-4676,1 53598U 22104L   23067.86142262  .00026233  00000-0  16596-2 0  9993,2 53598  53.2135 127.7934 0001149  89.4758 270.6366 15.08853074 29349,6917.84,95.437,540.5,538.911,0.0
53598.0,STARLINK-4676,PAYLOAD,2023-03-09 09:23:31,15.08850873,0.0001256,53.2136,125.4142,93.7827,266.3309,0.00066288,0.00010281,0.0,0 STARLINK-4676,1 53598U 22104L   23068.39133988  .00010281  00000-0  66288-3 0  9997,2 53598  53.2136 125.4142 0001256  93.7827 266.3309 15.08850873 29422,6917.847,95.437,540.581,538.843,0.0
53598.0,STARLINK-4676,PAYLOAD,2023-03-09 20:31:13,15.08863719,0.0001423,53.2146,123.3314,74.7197,285.3952,0.00075587,0.0001177,0.0,0 STARLINK-4676,1 53598U 22104L   23068.85501455  .00011770  00000-0  75587-3 0  9992,2 53598  53.2146 123.3314 0001423  74.7197 285.3952 15.08863719 30189,6917.808,95.436,540.657,538.688,0.0
53598.0,STARLINK-4676,PAYLOAD,2023-03-10 10:49:42,15.08830547,0.000119,53.2129,120.6551,90.1811,269.9317,-0.00019624,-3.409e-05,0.0,0 STARLINK-4676,1 53598U 22104L   23069.45118228 -.00003409  00000-0 -19624-3 0  9993,2 53598  53.2129 120.6551 0001190  90.1811 269.9317 15.08830547 29587,6917.909,95.438,540.598,538.951,0.0
53598.0,STARLINK-4676,PAYLOAD,2023-03-10 20:22:01,15.08830238,0.0001458,53.214,118.8695,90.1921,269.9238,0.00027942,4.161e-05,0.0,0 STARLINK-4676,1 53598U 22104L   23069.84862819  .00004161  00000-0  27942-3 0  9994,2 53598  53.2140 118.8695 0001458  90.1921 269.9238 15.08830238 30331,6917.91,95.438,540.784,538.767,0.0
53598.0,STARLINK-4676,PAYLOAD,2023-03-11 07:29:43,15.08843856,0.0001358,53.2128,116.7891,91.4232,268.6915,0.00082153,0.00012812,0.0,0 STARLINK-4676,1 53598U 22104L   23070.31230843  .00012812  00000-0  82153-3 0  9991,2 53598  53.2128 116.7891 0001358  91.4232 268.6915 15.08843856 29718,6917.869,95.437,540.673,538.794,0.0
53598.0,STARLINK-4676,PAYLOAD,2023-03-11 10:40:29,15.08848422,0.0001456,53.2134,116.1947,89.4356,270.6803,0.0012585,0.00019802,0.0,0 STARLINK-4676,1 53598U 22104L   23070.44478790  .00019802  00000-0  12585-2 0  9997,2 53598  53.2134 116.1947 0001456  89.4356 270.6803 15.08848422 30427,6917.855,95.437,540.727,538.712,0.0
53598.0,STARLINK-4676,PAYLOAD,2023-03-11 15:26:38,15.08862643,0.0001461,53.2126,115.301,91.3021,268.8138,0.001508,0.00023808,0.0,0 STARLINK-4676,1 53598U 22104L   23070.64350432  .00023808  00000-0  15080-2 0  9995,2 53598  53.2126 115.3010 0001461  91.3021 268.8138 15.08862643 29763,6917.811,95.436,540.687,538.665,0.0
53598.0,STARLINK-4676,PAYLOAD,2023-03-12 02:34:21,15.08827513,9.12e-05,53.2146,113.2194,71.6433,288.4658,0.00011954,1.615e-05,0.0,0 STARLINK-4676,1 53598U 22104L   23071.10719045  .00001615  00000-0  11954-3 0  9995,2 53598  53.2146 113.2194 0000912  71.6433 288.4658 15.08827513 29833,6917.919,95.438,540.414,539.153,0.0
53598.0,STARLINK-4676,PAYLOAD,2023-03-12 08:55:53,15.08843134,0.0001456,53.2132,112.0309,71.8951,288.22,0.0015597,0.00024624,0.0,0 STARLINK-4676,1 53598U 22104L   23071.37215096  .00024624  00000-0  15597-2 0  9992,2 53598  53.2132 112.0309 0001456  71.8951 288.2200 15.08843134 29876,6917.871,95.437,540.743,538.729,0.0
